{
  "type": "FeatureCollection",
  "features": [
    {
      "type": "Feature",
      "properties": {
        "norad_id": 26766,
        "name": "INTELSAT 10 (IS-10)",
        "group": "intelsat",
        "lat": 6.485053448781114,
        "lon": -167.39198745808196,
        "alt_km": 36124.28338432224,
        "timestamp": "2025-12-10T21:43:21.753939+00:00",
        "meta_object_name": "INTELSAT 10 (IS-10)",
        "meta_object_id": "2001-019A",
        "meta_epoch": "2025-12-10T09:00:59.362848",
        "meta_mean_motion": 0.99078972,
        "meta_eccentricity": 0.00078132,
        "meta_inclination": 8.6245,
        "meta_ra_of_asc_node": 61.1809,
        "meta_arg_of_pericenter": 223.4667,
        "meta_mean_anomaly": 78.8791,
        "meta_ephemeris_type": 0,
        "meta_classification_type": "U",
        "meta_norad_cat_id": 26766,
        "meta_element_set_no": 999,
        "meta_rev_at_epoch": 4370,
        "meta_bstar": 0,
        "meta_mean_motion_dot": -2.87e-06,
        "meta_mean_motion_ddot": 0,
        "tle_line1": "1 26766U 01019A   25344.37568707 -.00000287  00000+0  00000+0 0  9995",
        "tle_line2": "2 26766   8.6245  61.1809 0007813 223.4667  78.8791  0.99078972 43703"
      },
      "geometry": {
        "type": "Point",
        "coordinates": [
          -167.39198745808196,
          6.485053448781114
        ]
      }
    },
    {
      "type": "Feature",
      "properties": {
        "norad_id": 26900,
        "name": "INTELSAT 902 (IS-902)",
        "group": "intelsat",
        "lat": -5.527850325098919,
        "lon": -4.392763823232332,
        "alt_km": 35793.23318473674,
        "timestamp": "2025-12-10T21:43:21.753962+00:00",
        "meta_object_name": "INTELSAT 902 (IS-902)",
        "meta_object_id": "2001-039A",
        "meta_epoch": "2025-12-01T16:59:59.311968",
        "meta_mean_motion": 1.00270327,
        "meta_eccentricity": 0.00043097,
        "meta_inclination": 5.6187,
        "meta_ra_of_asc_node": 74.2002,
        "meta_arg_of_pericenter": 175.119,
        "meta_mean_anomaly": 26.3816,
        "meta_ephemeris_type": 0,
        "meta_classification_type": "U",
        "meta_norad_cat_id": 26900,
        "meta_element_set_no": 999,
        "meta_rev_at_epoch": 8871,
        "meta_bstar": 0,
        "meta_mean_motion_dot": -2.63e-06,
        "meta_mean_motion_ddot": 0,
        "tle_line1": "1 26900U 01039A   25335.70832537 -.00000263  00000+0  00000+0 0  9993",
        "tle_line2": "2 26900   5.6187  74.2002 0004309 175.1190  26.3816  1.00270327 88713"
      },
      "geometry": {
        "type": "Point",
        "coordinates": [
          -4.392763823232332,
          -5.527850325098919
        ]
      }
    },
    {
      "type": "Feature",
      "properties": {
        "norad_id": 27380,
        "name": "INTELSAT 904 (IS-904)",
        "group": "intelsat",
        "lat": -5.414617678278477,
        "lon": 14.387942893866425,
        "alt_km": 35785.89931369852,
        "timestamp": "2025-12-10T21:43:21.753978+00:00",
        "meta_object_name": "INTELSAT 904 (IS-904)",
        "meta_object_id": "2002-007A",
        "meta_epoch": "2025-12-10T03:07:08.031648",
        "meta_mean_motion": 1.00273003,
        "meta_eccentricity": 0.00015187,
        "meta_inclination": 6.4486,
        "meta_ra_of_asc_node": 71.4616,
        "meta_arg_of_pericenter": 218.4638,
        "meta_mean_anomaly": 164.4527,
        "meta_ephemeris_type": 0,
        "meta_classification_type": "U",
        "meta_norad_cat_id": 27380,
        "meta_element_set_no": 999,
        "meta_rev_at_epoch": 4987,
        "meta_bstar": 0,
        "meta_mean_motion_dot": -2.23e-06,
        "meta_mean_motion_ddot": 0,
        "tle_line1": "1 27380U 02007A   25344.12995407 -.00000223  00000+0  00000+0 0  9990",
        "tle_line2": "2 27380   6.4486  71.4616 0001518 218.4638 164.4527  1.00273003 49875"
      },
      "geometry": {
        "type": "Point",
        "coordinates": [
          14.387942893866425,
          -5.414617678278477
        ]
      }
    },
    {
      "type": "Feature",
      "properties": {
        "norad_id": 27426,
        "name": "DIRECTV 5 (TEMPO 1)",
        "group": "intelsat",
        "lat": -2.7174304944569805,
        "lon": -64.47197751961774,
        "alt_km": 35772.550071438,
        "timestamp": "2025-12-10T21:43:21.753991+00:00",
        "meta_object_name": "DIRECTV 5 (TEMPO 1)",
        "meta_object_id": "2002-023A",
        "meta_epoch": "2025-12-10T12:51:09.349632",
        "meta_mean_motion": 1.00272323,
        "meta_eccentricity": 0.00035832,
        "meta_inclination": 4.3969,
        "meta_ra_of_asc_node": 77.6765,
        "meta_arg_of_pericenter": 192.9498,
        "meta_mean_anomaly": 251.547,
        "meta_ephemeris_type": 0,
        "meta_classification_type": "U",
        "meta_norad_cat_id": 27426,
        "meta_element_set_no": 999,
        "meta_rev_at_epoch": 8623,
        "meta_bstar": 0,
        "meta_mean_motion_dot": -5.3e-07,
        "meta_mean_motion_ddot": 0,
        "tle_line1": "1 27426U 02023A   25344.53552488 -.00000053  00000+0  00000+0 0  9993",
        "tle_line2": "2 27426   4.3969  77.6765 0003583 192.9498 251.5470  1.00272323 86236"
      },
      "geometry": {
        "type": "Point",
        "coordinates": [
          -64.47197751961774,
          -2.7174304944569805
        ]
      }
    },
    {
      "type": "Feature",
      "properties": {
        "norad_id": 27438,
        "name": "INTELSAT 905 (IS-905)",
        "group": "intelsat",
        "lat": -1.7926561825397607,
        "lon": -91.57697525027555,
        "alt_km": 35774.304341849725,
        "timestamp": "2025-12-10T21:43:21.754004+00:00",
        "meta_object_name": "INTELSAT 905 (IS-905)",
        "meta_object_id": "2002-027A",
        "meta_epoch": "2025-12-10T10:38:24.492192",
        "meta_mean_motion": 1.00272307,
        "meta_eccentricity": 0.00027995,
        "meta_inclination": 6.2803,
        "meta_ra_of_asc_node": 72.0822,
        "meta_arg_of_pericenter": 193.4676,
        "meta_mean_anomaly": 196.2661,
        "meta_ephemeris_type": 0,
        "meta_classification_type": "U",
        "meta_norad_cat_id": 27438,
        "meta_element_set_no": 999,
        "meta_rev_at_epoch": 4947,
        "meta_bstar": 0,
        "meta_mean_motion_dot": 9.7e-07,
        "meta_mean_motion_ddot": 0,
        "tle_line1": "1 27438U 02027A   25344.44333903  .00000097  00000+0  00000+0 0  9996",
        "tle_line2": "2 27438   6.2803  72.0822 0002799 193.4676 196.2661  1.00272307 49476"
      },
      "geometry": {
        "type": "Point",
        "coordinates": [
          -91.57697525027555,
          -1.7926561825397607
        ]
      }
    },
    {
      "type": "Feature",
      "properties": {
        "norad_id": 27445,
        "name": "GALAXY 3C (G-3C)",
        "group": "intelsat",
        "lat": -2.5203228820788333,
        "lon": -49.18572677451715,
        "alt_km": 35789.94286069282,
        "timestamp": "2025-12-10T21:43:21.754033+00:00",
        "meta_object_name": "GALAXY 3C (G-3C)",
        "meta_object_id": "2002-030A",
        "meta_epoch": "2025-12-10T12:09:57.139776",
        "meta_mean_motion": 1.00271053,
        "meta_eccentricity": 0.00011096,
        "meta_inclination": 3.259,
        "meta_ra_of_asc_node": 80.5266,
        "meta_arg_of_pericenter": 95.032,
        "meta_mean_anomaly": 351.5472,
        "meta_ephemeris_type": 0,
        "meta_classification_type": "U",
        "meta_norad_cat_id": 27445,
        "meta_element_set_no": 999,
        "meta_rev_at_epoch": 4460,
        "meta_bstar": 0,
        "meta_mean_motion_dot": -1.49e-06,
        "meta_mean_motion_ddot": 0,
        "tle_line1": "1 27445U 02030A   25344.50691134 -.00000149  00000+0  00000+0 0  9997",
        "tle_line2": "2 27445   3.2590  80.5266 0001109  95.0320 351.5472  1.00271053 44600"
      },
      "geometry": {
        "type": "Point",
        "coordinates": [
          -49.18572677451715,
          -2.5203228820788333
        ]
      }
    },
    {
      "type": "Feature",
      "properties": {
        "norad_id": 27513,
        "name": "INTELSAT 906 (IS-906)",
        "group": "intelsat",
        "lat": 3.0341239413430277,
        "lon": 109.70242335670767,
        "alt_km": 35809.482545673396,
        "timestamp": "2025-12-10T21:43:21.754048+00:00",
        "meta_object_name": "INTELSAT 906 (IS-906)",
        "meta_object_id": "2002-041A",
        "meta_epoch": "2025-12-09T20:43:37.286400",
        "meta_mean_motion": 1.00271049,
        "meta_eccentricity": 0.00061202,
        "meta_inclination": 5.3215,
        "meta_ra_of_asc_node": 75.2657,
        "meta_arg_of_pericenter": 190.4585,
        "meta_mean_anomaly": 188.1629,
        "meta_ephemeris_type": 0,
        "meta_classification_type": "U",
        "meta_norad_cat_id": 27513,
        "meta_element_set_no": 999,
        "meta_rev_at_epoch": 8513,
        "meta_bstar": 0,
        "meta_mean_motion_dot": 1.5e-07,
        "meta_mean_motion_ddot": 0,
        "tle_line1": "1 27513U 02041A   25343.86362600  .00000015  00000+0  00000+0 0  9997",
        "tle_line2": "2 27513   5.3215  75.2657 0006120 190.4585 188.1629  1.00271049 85135"
      },
      "geometry": {
        "type": "Point",
        "coordinates": [
          109.70242335670767,
          3.0341239413430277
        ]
      }
    }
  ]
}